{
    "type": "FeatureCollection",
    "name": "ne_10m_airports",
    "crs": {
        "type": "name",
        "properties": {
            "name": "urn:ogc:def:crs:OGC:1.3:CRS84"
        }
    },
    "features": [
        {
            "type": "Feature",
            "properties": {
                "scalerank": 2,
                "featurecla": "Airport",
                "type": "major",
                "name": "Hartsfield-Jackson Atlanta Int'l",
                "abbrev": "ATL",
                "location": "terminal",
                "gps_code": "KATL",
                "iata_code": "ATL",
                "wikipedia": "http:\/\/en.wikipedia.org\/wiki\/Hartsfield-Jackson_Atlanta_International_Airport",
                "natlscale": 150.0,
                "comments": null,
                "wikidataid": "Q214861",
                "name_ar": "مطار هارتسفيلد جاكسون",
                "name_bn": "হার্টসফিল্ড-জ্যাকসন আটলান্টা আন্তর্জাতিক বিমানবন্দর",
                "name_de": "Hartsfield–Jackson Atlanta International Airport",
                "name_en": "Hartsfield–Jackson Atlanta International Airport",
                "name_es": "Aeropuerto Internacional Hartsfield-Jackson",
                "name_fr": "aéroport international Hartsfield-Jackson d'Atlanta",
                "name_el": null,
                "name_hi": null,
                "name_hu": "Hartsfield–Jackson nemzetközi repülőtér",
                "name_id": "Bandar Udara Internasional Hartsfield–Jackson Atlanta",
                "name_it": "Aeroporto Internazionale di Atlanta-Hartsfield-Jackson",
                "name_ja": "ハーツフィールド・ジャクソン・アトランタ国際空港",
                "name_ko": "하츠필드 잭슨 애틀랜타 국제공항",
                "name_nl": "Hartsfield-Jackson Atlanta International Airport",
                "name_pl": "Port lotniczy Atlanta - Hartsfield-Jackson",
                "name_pt": "Aeroporto Internacional de Atlanta Hartsfield-Jackson",
                "name_ru": "Международный аэропорт Хартсфилд-Джексон Атланта",
                "name_sv": "Hartsfield–Jackson Atlanta International Airport",
                "name_tr": "Atlanta Uluslararası Havalimanı",
                "name_vi": "Sân bay quốc tế Hartsfield-Jackson Atlanta",
                "name_zh": "哈茨菲尔德－杰克逊亚特兰大国际机场",
                "wdid_score": 4,
                "ne_id": 1159127283
            },
            "geometry": {
                "type": "Point",
                "coordinates": [
                    -84.425397433604729,
                    33.640529080735213
                ]
            }
        },
        {
            "type": "Feature",
            "properties": {
                "scalerank": 2,
                "featurecla": "Airport",
                "type": "major",
                "name": "Beijing Capital",
                "abbrev": "PEK",
                "location": "terminal",
                "gps_code": "ZBAA",
                "iata_code": "PEK",
                "wikipedia": "http:\/\/en.wikipedia.org\/wiki\/Beijing_Capital_International_Airport",
                "natlscale": 150.0,
                "comments": null,
                "wikidataid": "Q32190",
                "name_ar": "مطار بكين العاصمة الدولي",
                "name_bn": "বেইজিং আন্তর্জাতিক বিমানবন্দর",
                "name_de": "Flughafen Peking",
                "name_en": "Beijing Capital International Airport",
                "name_es": "Aeropuerto Internacional de Pekín",
                "name_fr": "aéroport international de Pékin",
                "name_el": null,
                "name_hi": "बेइजिंग कैपिटल अन्तर्राष्ट्रीय विमानक्षेत्र",
                "name_hu": "Pekingi nemzetközi repülőtér",
                "name_id": "Bandar Udara Internasional Ibu Kota Beijing",
                "name_it": "aeroporto internazionale di Pechino-Capital",
                "name_ja": "北京首都国際空港",
                "name_ko": "베이징 서우두 국제공항",
                "name_nl": "Luchthaven Peking Capital",
                "name_pl": "Port lotniczy Pekin",
                "name_pt": "Aeroporto Internacional de Pequim",
                "name_ru": "Шоуду",
                "name_sv": "Beijing Capital International Airport",
                "name_tr": "Pekin Havaalanı",
                "name_vi": "Sân bay quốc tế Thủ Đô Bắc Kinh",
                "name_zh": "北京首都国际机场",
                "wdid_score": 4,
                "ne_id": 1159127293
            },
            "geometry": {
                "type": "Point",
                "coordinates": [
                    116.588174004661028,
                    40.078766336331022
                ]
            }
        },
        {
            "type": "Feature",
            "properties": {
                "scalerank": 2,
                "featurecla": "Airport",
                "type": "major",
                "name": "Dubai Int'l",
                "abbrev": "DXB",
                "location": "terminal",
                "gps_code": "OMDB",
                "iata_code": "DXB",
                "wikipedia": "http:\/\/en.wikipedia.org\/wiki\/Dubai_International_Airport",
                "natlscale": 150.0,
                "comments": null,
                "wikidataid": "Q193439",
                "name_ar": "مطار دبي الدولي",
                "name_bn": "দুবাই আন্তর্জাতিক বিমানবন্দর",
                "name_de": "Flughafen Dubai",
                "name_en": "Dubai International Airport",
                "name_es": "Aeropuerto Internacional de Dubái",
                "name_fr": "aéroport international de Dubaï",
                "name_el": "Διεθνές Αεροδρόμιο του Ντουμπάι",
                "name_hi": "दुबई अन्तर्राष्ट्रीय विमानक्षेत्र",
                "name_hu": "Dubaji nemzetközi repülőtér",
                "name_id": "Bandar Udara Internasional Dubai",
                "name_it": "Aeroporto Internazionale di Dubai",
                "name_ja": "ドバイ国際空港",
                "name_ko": "두바이 국제공항",
                "name_nl": "Dubai International Airport",
                "name_pl": "Port lotniczy Dubaj",
                "name_pt": "Aeroporto Internacional de Dubai",
                "name_ru": "Дубай",
                "name_sv": "Dubai International Airport",
                "name_tr": "Dubai Uluslararası Havalimanı",
                "name_vi": "Sân bay quốc tế Dubai",
                "name_zh": "迪拜国际机场",
                "wdid_score": 4,
                "ne_id": 1159127459
            },
            "geometry": {
                "type": "Point",
                "coordinates": [
                    55.35407691722429,
                    25.252565593818161
                ]
            }
        },
        {
            "type": "Feature",
            "properties": {
                "scalerank": 2,
                "featurecla": "Airport",
                "type": "major",
                "name": "Los Angeles Int'l",
                "abbrev": "LAX",
                "location": "terminal",
                "gps_code": "KLAX",
                "iata_code": "LAX",
                "wikipedia": "http:\/\/en.wikipedia.org\/wiki\/Los_Angeles_International_Airport",
                "natlscale": 150.0,
                "comments": null,
                "wikidataid": "Q8731",
                "name_ar": "مطار لوس أنجلوس الدولي",
                "name_bn": "লস অ্যাঞ্জেলেস আন্তর্জাতিক বিমানবন্দর",
                "name_de": "Los Angeles International Airport",
                "name_en": "Los Angeles International Airport",
                "name_es": "Aeropuerto Internacional de Los Ángeles",
                "name_fr": "aéroport international de Los Angeles",
                "name_el": "Διεθνές αεροδρόμιο του Λος Αντζελες",
                "name_hi": null,
                "name_hu": "Los Angeles-i nemzetközi repülőtér",
                "name_id": "Bandar Udara Internasional Los Angeles",
                "name_it": "Aeroporto Internazionale di Los Angeles",
                "name_ja": "ロサンゼルス国際空港",
                "name_ko": "로스앤젤레스 국제공항",
                "name_nl": "internationale luchthaven van Los Angeles",
                "name_pl": "Port lotniczy Los Angeles",
                "name_pt": "Aeroporto Internacional de Los Angeles",
                "name_ru": "Лос-Анджелес",
                "name_sv": "Los Angeles International Airport",
                "name_tr": "Los Angeles Uluslararası Havalimanı",
                "name_vi": "Sân bay quốc tế Los Angeles",
                "name_zh": "洛杉磯國際機場",
                "wdid_score": 4,
                "ne_id": 1159127551
            },
            "geometry": {
                "type": "Point",
                "coordinates": [
                    -118.402468548521981,
                    33.944174254358572
                ]
            }
        },
        {
            "type": "Feature",
            "properties": {
                "scalerank": 2,
                "featurecla": "Airport",
                "type": "major",
                "name": "Chicago O'Hare Int'l",
                "abbrev": "ORD",
                "location": "terminal",
                "gps_code": "KORD",
                "iata_code": "ORD",
                "wikipedia": "http:\/\/en.wikipedia.org\/wiki\/O'Hare_International_Airport",
                "natlscale": 150.0,
                "comments": null,
                "wikidataid": "Q213717",
                "name_ar": "مطار أوهير الدولي",
                "name_bn": null,
                "name_de": "Chicago O’Hare International Airport",
                "name_en": "O'Hare International Airport",
                "name_es": "Aeropuerto Internacional O'Hare",
                "name_fr": "aéroport international O'Hare de Chicago",
                "name_el": "Διεθνές Αεροδρόμιο Ο΄Χερ",
                "name_hi": "ओहेर् अन्तरराष्ट्रीय विमानाश्रय",
                "name_hu": "O’Hare nemzetközi repülőtér",
                "name_id": "Bandar Udara Internasional O'Hare",
                "name_it": "Aeroporto Internazionale di Chicago - O'Hare",
                "name_ja": "シカゴ・オヘア国際空港",
                "name_ko": "오헤어 국제공항",
                "name_nl": "O'Hare International Airport",
                "name_pl": "Port lotniczy Chicago-O'Hare",
                "name_pt": "Aeroporto Internacional O'Hare",
                "name_ru": "Международный аэропорт О’Хара",
                "name_sv": "O'Hare International Airport",
                "name_tr": "O'Hare Uluslararası Havalimanı",
                "name_vi": "Sân bay Quốc tế O'Hare",
                "name_zh": "奥黑尔国际机场",
                "wdid_score": 4,
                "ne_id": 1159127621
            },
            "geometry": {
                "type": "Point",
                "coordinates": [
                    -87.905134390650034,
                    41.976529102380312
                ]
            }
        },
        {
            "type": "Feature",
            "properties": {
                "scalerank": 2,
                "featurecla": "Airport",
                "type": "major",
                "name": "London Heathrow",
                "abbrev": "LHR",
                "location": "parking",
                "gps_code": "EGLL",
                "iata_code": "LHR",
                "wikipedia": "http:\/\/en.wikipedia.org\/wiki\/London_Heathrow_Airport",
                "natlscale": 150.0,
                "comments": null,
                "wikidataid": "Q8691",
                "name_ar": "مطار لندن هيثرو",
                "name_bn": "লন্ডন হিথ্রো বিমানবন্দর",
                "name_de": "Flughafen London Heathrow",
                "name_en": "Heathrow Airport",
                "name_es": "Aeropuerto de Londres-Heathrow",
                "name_fr": "aéroport de Londres Heathrow",
                "name_el": "Διεθνές Αεροδρόμιο Χίθροου",
                "name_hi": "लंदन हीथ्रो विमानक्षेत्र",
                "name_hu": "London-Heathrow-i repülőtér",
                "name_id": "Bandar Udara Internasional London Heathrow",
                "name_it": "Aeroporto di Londra-Heathrow",
                "name_ja": "ロンドン・ヒースロー空港",
                "name_ko": "런던 히드로 공항",
                "name_nl": "Luchthaven Londen Heathrow",
                "name_pl": "Port lotniczy Londyn-Heathrow",
                "name_pt": "Aeroporto de Londres Heathrow",
                "name_ru": "Хитроу",
                "name_sv": "London-Heathrow flygplats",
                "name_tr": "Heathrow Havalimanı",
                "name_vi": "Sân bay London Heathrow",
                "name_zh": "伦敦希思罗机场",
                "wdid_score": 4,
                "ne_id": 1159127237
            },
            "geometry": {
                "type": "Point",
                "coordinates": [
                    -0.453156652063309,
                    51.470995879993843
                ]
            }
        },
        {
            "type": "Feature",
            "properties": {
                "scalerank": 2,
                "featurecla": "Airport",
                "type": "major",
                "name": "Hong Kong Int'l",
                "abbrev": "HKG",
                "location": "terminal",
                "gps_code": "VHHH",
                "iata_code": "HKG",
                "wikipedia": "http:\/\/en.wikipedia.org\/wiki\/Hong_Kong_International_Airport",
                "natlscale": 150.0,
                "comments": null,
                "wikidataid": "Q17704",
                "name_ar": "مطار هونغ كونغ الدولي",
                "name_bn": "হংকং আন্তর্জাতিক বিমানবন্দর",
                "name_de": "Hong Kong International Airport",
                "name_en": "Hong Kong International Airport",
                "name_es": "Aeropuerto Internacional de Hong Kong",
                "name_fr": "aéroport international de Hong Kong",
                "name_el": null,
                "name_hi": "हांगकांग अन्तर्राष्ट्रीय विमानक्षेत्र",
                "name_hu": "Hongkongi nemzetközi repülőtér",
                "name_id": "Bandar Udara Internasional Hong Kong",
                "name_it": "aeroporto internazionale di Hong Kong",
                "name_ja": "香港国際空港",
                "name_ko": "홍콩 국제공항",
                "name_nl": "Luchthaven Hongkong",
                "name_pl": "Port lotniczy Hongkong",
                "name_pt": "Aeroporto Internacional de Hong Kong",
                "name_ru": "Чхеклапкок",
                "name_sv": "Hong Kong International Airport",
                "name_tr": "Hong Kong Uluslararası Havalimanı",
                "name_vi": "Sân bay quốc tế Hồng Kông",
                "name_zh": "香港國際機場",
                "wdid_score": 4,
                "ne_id": 1159127187
            },
            "geometry": {
                "type": "Point",
                "coordinates": [
                    113.935016387376351,
                    22.315332828086753
                ]
            }
        },
        {
            "type": "Feature",
            "properties": {
                "scalerank": 4,
                "featurecla": "Airport",
                "type": "major",
                "name": "Shanghai Pudong Int'l",
                "abbrev": "PVG",
                "location": "terminal",
                "gps_code": "ZSPD",
                "iata_code": "PVG",
                "wikipedia": "http:\/\/en.wikipedia.org\/wiki\/Shanghai_Pudong_International_Airport",
                "natlscale": 50.0,
                "comments": null,
                "wikidataid": "Q36420",
                "name_ar": "مطار شانغهاي بودنغ الدولي",
                "name_bn": null,
                "name_de": "Flughafen Shanghai-Pudong",
                "name_en": "Shanghai Pudong International Airport",
                "name_es": "Aeropuerto Internacional Shanghai Pudong",
                "name_fr": "aéroport international de Shanghai-Pudong",
                "name_el": null,
                "name_hi": "शंघाई पुडोंग अन्तर्राष्ट्रीय विमानक्षेत्र",
                "name_hu": "Sanghaj-Putungi nemzetközi repülőtér",
                "name_id": "Bandar Udara Internasional Pudong Shanghai",
                "name_it": "Aeroporto Internazionale di Shanghai-Pudong",
                "name_ja": "上海浦東国際空港",
                "name_ko": "상하이 푸둥 국제공항",
                "name_nl": "Luchthaven Shanghai Pudong",
                "name_pl": "Port lotniczy Szanghaj-Pudong",
                "name_pt": "Aeroporto Internacional de Xangai Pudong",
                "name_ru": "Шанхай Пудун",
                "name_sv": "Shanghai Pudong International Airport",
                "name_tr": "Şanghay Pudong Uluslararası Havalimanı",
                "name_vi": "Sân bay quốc tế Phố Đông-Thượng Hải",
                "name_zh": "上海浦东国际机场",
                "wdid_score": 4,
                "ne_id": 1159126719
            },
            "geometry": {
                "type": "Point",
                "coordinates": [
                    121.801518760578475,
                    31.152309029553294
                ]
            }
        },
        {
            "type": "Feature",
            "properties": {
                "scalerank": 2,
                "featurecla": "Airport",
                "type": "major",
                "name": "Charles de Gaulle Int'l",
                "abbrev": "CDG",
                "location": "terminal",
                "gps_code": "LFPG",
                "iata_code": "CDG",
                "wikipedia": "http:\/\/en.wikipedia.org\/wiki\/Charles_de_Gaulle_International_Airport",
                "natlscale": 150.0,
                "comments": null,
                "wikidataid": "Q46280",
                "name_ar": "مطار باريس شارل ديغول",
                "name_bn": null,
                "name_de": "Flughafen Paris-Charles-de-Gaulle",
                "name_en": "Paris-Charles de Gaulle Airport",
                "name_es": "Aeropuerto de París-Charles de Gaulle",
                "name_fr": "aéroport Paris-Charles-de-Gaulle",
                "name_el": "Διεθνές Αεροδρόμιο Παρισιού Σαρλ ντε Γκωλ",
                "name_hi": "चार्ल्स डि गॉल विमानक्षेत्र",
                "name_hu": "Párizs-Charles de Gaulle repülőtér",
                "name_id": "Bandar Udara Paris-Charles de Gaulle",
                "name_it": "Aeroporto di Parigi Charles de Gaulle",
                "name_ja": "シャルル・ド・ゴール国際空港",
                "name_ko": "파리 샤를 드 골 공항",
                "name_nl": "Luchthaven Parijs-Charles de Gaulle",
                "name_pl": "Port lotniczy Paryż-Roissy-Charles de Gaulle",
                "name_pt": "Aeroporto de Paris-Charles de Gaulle",
                "name_ru": "Париж — Шарль-де-Голль",
                "name_sv": "Paris-Charles de Gaulle-flygplatsen",
                "name_tr": "Paris-Charles de Gaulle Havalimanı",
                "name_vi": "Sân bay quốc tế Charles-de-Gaulle",
                "name_zh": "巴黎夏尔·戴高乐机场",
                "wdid_score": 4,
                "ne_id": 1159127735
            },
            "geometry": {
                "type": "Point",
                "coordinates": [
                    2.541867767394573,
                    49.014420096938551
                ]
            }
        },
        {
            "type": "Feature",
            "properties": {
                "scalerank": 2,
                "featurecla": "Airport",
                "type": "major",
                "name": "Schiphol",
                "abbrev": "AMS",
                "location": "terminal",
                "gps_code": "EHAM",
                "iata_code": "AMS",
                "wikipedia": "http:\/\/en.wikipedia.org\/wiki\/Amsterdam_Schiphol_Airport",
                "natlscale": 150.0,
                "comments": null,
                "wikidataid": "Q9694",
                "name_ar": "مطار سخيبول أمستردام",
                "name_bn": null,
                "name_de": "Flughafen Schiphol",
                "name_en": "Amsterdam Airport Schiphol",
                "name_es": "Aeropuerto de Ámsterdam-Schiphol",
                "name_fr": "aéroport d'Amsterdam-Schiphol",
                "name_el": "Διεθνές Αεροδρόμιο Σκίπχολ",
                "name_hi": "शिफोल हवाई अड्डा",
                "name_hu": "Schiphol repülőtér",
                "name_id": "Bandar Udara Internasional Schiphol",
                "name_it": "aeroporto di Amsterdam-Schiphol",
                "name_ja": "スキポール空港",
                "name_ko": "스히폴 국제공항",
                "name_nl": "Luchthaven Schiphol",
                "name_pl": "Port lotniczy Amsterdam-Schiphol",
                "name_pt": "Aeroporto de Amsterdão Schiphol",
                "name_ru": "Схипхол",
                "name_sv": "Amsterdam-Schiphol-flygplatsen",
                "name_tr": "Amsterdam Schiphol Havalimanı",
                "name_vi": "Sân bay Amsterdam Schiphol",
                "name_zh": "阿姆斯特丹史基浦機場",
                "wdid_score": 2,
                "ne_id": 1159127211
            },
            "geometry": {
                "type": "Point",
                "coordinates": [
                    4.764376932328117,
                    52.308932388982171
                ]
            }
        },
        {
            "type": "Feature",
            "properties": {
                "scalerank": 2,
                "featurecla": "Airport",
                "type": "major",
                "name": "Dallas-Ft. Worth Int'l",
                "abbrev": "DFW",
                "location": "parking",
                "gps_code": "KDFW",
                "iata_code": "DFW",
                "wikipedia": "http:\/\/en.wikipedia.org\/wiki\/Dallas-Fort_Worth_International_Airport",
                "natlscale": 150.0,
                "comments": null,
                "wikidataid": "Q459096",
                "name_ar": "مطار دالاس فورت ورث الدولي",
                "name_bn": "ডালাস\/ফোর্ট ওয়ার্থ আন্তর্জাতিক বিমানবন্দর",
                "name_de": "Flughafen Dallas\/Fort Worth",
                "name_en": "Dallas\/Fort Worth International Airport",
                "name_es": "Aeropuerto Internacional de Dallas-Fort Worth",
                "name_fr": "aéroport international de Dallas-Fort Worth",
                "name_el": null,
                "name_hi": "डलास हवाई अड्डा",
                "name_hu": null,
                "name_id": "Bandar Udara Internasional Dallas-Fort Worth",
                "name_it": "Aeroporto Internazionale di Dallas - Fort Worth",
                "name_ja": "ダラス・フォートワース国際空港",
                "name_ko": "댈러스 포트워스 국제공항",
                "name_nl": "Dallas-Fort Worth International Airport",
                "name_pl": "Port lotniczy Dallas-Fort Worth",
                "name_pt": "Aeroporto Internacional de Dallas\/Fort Worth",
                "name_ru": "Даллас\/Форт-Уэрт",
                "name_sv": "Dallas\/Fort Worth International Airport",
                "name_tr": "Dallas\/Fort Worth Uluslararası Havalimanı",
                "name_vi": "Sân bay quốc tế Dallas-Forth Worth",
                "name_zh": "达拉斯－沃思堡国际机场",
                "wdid_score": 4,
                "ne_id": 1159127437
            },
            "geometry": {
                "type": "Point",
                "coordinates": [
                    -97.040371074114418,
                    32.900150559481553
                ]
            }
        },
        {
            "type": "Feature",
            "properties": {
                "scalerank": 4,
                "featurecla": "Airport",
                "type": "major",
                "name": "Guangzhou Baiyun Int'l",
                "abbrev": "CAN",
                "location": "terminal",
                "gps_code": "ZGGG",
                "iata_code": "CAN",
                "wikipedia": "http:\/\/en.wikipedia.org\/wiki\/Guangzhou_Baiyun_International_Airport",
                "natlscale": 50.0,
                "comments": null,
                "wikidataid": "Q44868",
                "name_ar": "مطار قوانغتشو باييون الدولي",
                "name_bn": null,
                "name_de": "Flughafen Guangzhou",
                "name_en": "Guangzhou Baiyun International Airport",
                "name_es": "Aeropuerto Internacional Baiyun",
                "name_fr": "aéroport international de Canton Baiyun",
                "name_el": null,
                "name_hi": "गुवांगज़ोउ बाइयुन अन्तर्राष्ट्रीय विमानक्षेत्र",
                "name_hu": null,
                "name_id": "Bandar Udara Internasional Baiyun Guangzhou",
                "name_it": "Aeroporto di Canton-Baiyun",
                "name_ja": "広州白雲国際空港",
                "name_ko": "광저우 바이윈 국제공항",
                "name_nl": "internationale luchthaven van Guangzhou Baiyun",
                "name_pl": "Port lotniczy Guangzhou",
                "name_pt": "Aeroporto Internacional de Guangzhou Baiyun",
                "name_ru": "Гуанчжоу Байюнь",
                "name_sv": "Guangzhou",
                "name_tr": "Guangzhou Baiyun Uluslararası Havalimanı",
                "name_vi": "Sân bay quốc tế Bạch Vân Quảng Châu",
                "name_zh": "广州白云国际机场",
                "wdid_score": 4,
                "ne_id": 1159124905
            },
            "geometry": {
                "type": "Point",
                "coordinates": [
                    113.297516552170663,
                    23.389151157324299
                ]
            }
        },
        {
            "type": "Feature",
            "properties": {
                "scalerank": 2,
                "featurecla": "Airport",
                "type": "major",
                "name": "Frankfurt Int'l",
                "abbrev": "FRA",
                "location": "terminal",
                "gps_code": "EDDF",
                "iata_code": "FRA",
                "wikipedia": "http:\/\/en.wikipedia.org\/wiki\/Frankfurt_Airport",
                "natlscale": 150.0,
                "comments": null,
                "wikidataid": "Q46033",
                "name_ar": "مطار فرانكفورت",
                "name_bn": "ফ্রাঙ্কফুর্ট বিমানবন্দর",
                "name_de": "Flughafen Frankfurt am Main",
                "name_en": "Frankfurt Airport",
                "name_es": "aeropuerto de Frankfurt",
                "name_fr": "aéroport international de Francfort \/ Rhein-Main",
                "name_el": "Διεθνές Αεροδρόμιο Φρανκφούρτης",
                "name_hi": "फ़्रैंकफ़र्ट विमानक्षेत्र",
                "name_hu": "Frankfurti repülőtér",
                "name_id": "Bandar Udara Internasional Frankfurt",
                "name_it": "aeroporto di Francoforte sul Meno",
                "name_ja": "フランクフルト空港",
                "name_ko": "프랑크푸르트 공항",
                "name_nl": "Luchthaven Frankfurt am Main",
                "name_pl": "Port lotniczy Frankfurt",
                "name_pt": "Aeroporto de Frankfurt",
                "name_ru": "Франкфурт-на-Майне",
                "name_sv": "Frankfurt am Mains flygplats",
                "name_tr": "Frankfurt Havalimanı",
                "name_vi": "Sân bay quốc tế Frankfurt",
                "name_zh": "法兰克福机场",
                "wdid_score": 2,
                "ne_id": 1159127769
            },
            "geometry": {
                "type": "Point",
                "coordinates": [
                    8.571822869076076,
                    50.05067708952074
                ]
            }
        },
        {
            "type": "Feature",
            "properties": {
                "scalerank": 2,
                "featurecla": "Airport",
                "type": "major",
                "name": "Atatürk Hava Limani",
                "abbrev": "IST",
                "location": "terminal",
                "gps_code": "LTBA",
                "iata_code": "IST",
                "wikipedia": "http:\/\/en.wikipedia.org\/wiki\/Atat%C3%BCrk_International_Airport",
                "natlscale": 150.0,
                "comments": "???",
                "wikidataid": "Q86473",
                "name_ar": "مطار إسطنبول أتاتورك",
                "name_bn": "আতাতুর্ক আন্তর্জাতিক বিমানবন্দর",
                "name_de": "Flughafen Istanbul-Atatürk",
                "name_en": "Atatürk International Airport",
                "name_es": "Aeropuerto Atatürk de Estambul",
                "name_fr": "aéroport Atatürk d'Istanbul",
                "name_el": "Διεθνές Αεροδρόμιο Ατατούρκ",
                "name_hi": "इस्तांबुल अतातुर्क विमानक्षेत्र",
                "name_hu": "Atatürk nemzetközi repülőtér",
                "name_id": "Bandar Udara Internasional Ataturk",
                "name_it": "Aeroporto di Istanbul - Atatürk",
                "name_ja": "アタテュルク国際空港",
                "name_ko": "아타튀르크 국제공항",
                "name_nl": "Luchthaven Istanbul Atatürk",
                "name_pl": "Port lotniczy Stambuł-Atatürk",
                "name_pt": "Aeroporto de Istambul Atatürk",
                "name_ru": "аэропорт имени Ататюрка",
                "name_sv": "Atatürk International Airport",
                "name_tr": "Atatürk Havalimanı",
                "name_vi": "Sân bay quốc tế Atatürk",
                "name_zh": "阿塔图尔克国际机场",
                "wdid_score": 2,
                "ne_id": 1159127517
            },
            "geometry": {
                "type": "Point",
                "coordinates": [
                    28.819549308789298,
                    40.977838817779705
                ]
            }
        },
        {
            "type": "Feature",
            "properties": {
                "scalerank": 2,
                "featurecla": "Airport",
                "type": "major",
                "name": "Indira Gandhi Int'l",
                "abbrev": "DEL",
                "location": "terminal",
                "gps_code": "VIDP",
                "iata_code": "DEL",
                "wikipedia": "http:\/\/en.wikipedia.org\/wiki\/Indira_Gandhi_International_Airport",
                "natlscale": 150.0,
                "comments": null,
                "wikidataid": "Q821275",
                "name_ar": "مطار انديرا غاندي الدولي",
                "name_bn": "ইন্দিরা গান্ধী আন্তর্জাতিক বিমানবন্দর",
                "name_de": "Indira Gandhi International Airport",
                "name_en": "Indira Gandhi International Airport",
                "name_es": "Aeropuerto Internacional Indira Gandhi",
                "name_fr": "aéroport international Indira-Gandhi",
                "name_el": null,
                "name_hi": "इंदिरा गांधी अन्तर्राष्ट्रीय विमानक्षेत्र",
                "name_hu": null,
                "name_id": "Bandar Udara Internasional Indira Gandhi",
                "name_it": "Aeroporto Internazionale Indira Gandhi",
                "name_ja": "インディラ・ガンディー国際空港",
                "name_ko": "인디라 간디 국제공항",
                "name_nl": "Indira Gandhi International Airport",
                "name_pl": "Port lotniczy Indira Gandhi",
                "name_pt": "Aeroporto Internacional Indira Gandhi",
                "name_ru": "Международный аэропорт имени Индиры Ганди",
                "name_sv": "Indira Gandhi internationella flygplats",
                "name_tr": null,
                "name_vi": "Sân bay quốc tế Indira Gandhi",
                "name_zh": "英迪拉·甘地国际机场",
                "wdid_score": 4,
                "ne_id": 1159127419
            },
            "geometry": {
                "type": "Point",
                "coordinates": [
                    77.087836256533194,
                    28.559203976058605
                ]
            }
        },
        {
            "type": "Feature",
            "properties": {
                "scalerank": 2,
                "featurecla": "Airport",
                "type": "major",
                "name": "Singapore Changi",
                "abbrev": "SIN",
                "location": "terminal",
                "gps_code": "WSSS",
                "iata_code": "SIN",
                "wikipedia": "http:\/\/en.wikipedia.org\/wiki\/Singapore_Changi_Airport",
                "natlscale": 150.0,
                "comments": null,
                "wikidataid": "Q32159",
                "name_ar": "مطار شانغي سنغافورة",
                "name_bn": "সিঙ্গাপুর চাঙ্গি বিমানবন্দর",
                "name_de": "Flughafen Singapur",
                "name_en": "Singapore Changi Airport",
                "name_es": "Aeropuerto Internacional de Singapur",
                "name_fr": "aéroport Changi de Singapour",
                "name_el": null,
                "name_hi": "सिंगापुर चांगी अन्तर्राष्ट्रीय विमानक्षेत्र",
                "name_hu": "Szingapúr-Changi repülőtér",
                "name_id": "Bandar Udara Internasional Changi Singapura",
                "name_it": "Aeroporto Internazionale di Singapore Changi",
                "name_ja": "シンガポール・チャンギ国際空港",
                "name_ko": "싱가포르 창이 국제공항",
                "name_nl": "Internationale luchthaven Changi",
                "name_pl": "Port lotniczy Singapur-Changi",
                "name_pt": "Aeroporto de Singapura",
                "name_ru": "Чанги",
                "name_sv": "Singapore Changi Airport",
                "name_tr": "Singapur Changi Havalimanı",
                "name_vi": "Sân bay quốc tế Singapore Changi",
                "name_zh": "新加坡樟宜机场",
                "wdid_score": 4,
                "ne_id": 1159127223
            },
            "geometry": {
                "type": "Point",
                "coordinates": [
                    103.986413880993325,
                    1.356160835281264
                ]
            }
        },
        {
            "type": "Feature",
            "properties": {
                "scalerank": 2,
                "featurecla": "Airport",
                "type": "major",
                "name": "Denver Int'l",
                "abbrev": "DEN",
                "location": "terminal",
                "gps_code": "KDEN",
                "iata_code": "DEN",
                "wikipedia": "http:\/\/en.wikipedia.org\/wiki\/Denver_International_Airport",
                "natlscale": 150.0,
                "comments": null,
                "wikidataid": "Q330015",
                "name_ar": "مطار دنفر الدولي",
                "name_bn": "ডেনভার আন্তর্জাতিক বিমানবন্দর",
                "name_de": "Denver International Airport",
                "name_en": "Denver International Airport",
                "name_es": "Aeropuerto Internacional de Denver",
                "name_fr": "aéroport international de Denver",
                "name_el": null,
                "name_hi": null,
                "name_hu": "Denveri nemzetközi repülőtér",
                "name_id": "Bandar Udara Internasional Denver",
                "name_it": "Aeroporto Internazionale di Denver",
                "name_ja": "デンバー国際空港",
                "name_ko": "덴버 국제공항",
                "name_nl": "internationale luchthaven van Denver",
                "name_pl": "Port lotniczy Denver",
                "name_pt": "Aeroporto Internacional de Denver",
                "name_ru": "Денвер",
                "name_sv": "Denver International Airport",
                "name_tr": "Denver Uluslararası Havalimanı",
                "name_vi": "Sân bay quốc tế Denver",
                "name_zh": "丹佛國際機場",
                "wdid_score": 4,
                "ne_id": 1159127425
            },
            "geometry": {
                "type": "Point",
                "coordinates": [
                    -104.673797338541974,
                    39.849461388150949
                ]
            }
        },
        {
            "type": "Feature",
            "properties": {
                "scalerank": 5,
                "featurecla": "Airport",
                "type": "major",
                "name": "John F Kennedy Int'l",
                "abbrev": "JFK",
                "location": "parking",
                "gps_code": "KJFK",
                "iata_code": "JFK",
                "wikipedia": "http:\/\/en.wikipedia.org\/wiki\/John_F._Kennedy_International_Airport",
                "natlscale": 30.0,
                "comments": null,
                "wikidataid": "Q8685",
                "name_ar": "مطار جون إف كينيدي الدولي",
                "name_bn": "জন এফ. কেনেডি আন্তর্জাতিক বিমানবন্দর",
                "name_de": "John F. Kennedy International Airport",
                "name_en": "John F. Kennedy International Airport",
                "name_es": "Aeropuerto Internacional John F. Kennedy",
                "name_fr": "aéroport international John-F.-Kennedy de New York",
                "name_el": "Διεθνές Αεροδρόμιο Τζον Κένεντι",
                "name_hi": null,
                "name_hu": "John Fitzgerald Kennedy nemzetközi repülőtér",
                "name_id": "Bandar Udara Internasional John F. Kennedy",
                "name_it": "Aeroporto Internazionale John F. Kennedy",
                "name_ja": "ジョン・F・ケネディ国際空港",
                "name_ko": "존 F. 케네디 국제공항",
                "name_nl": "John F. Kennedy International Airport",
                "name_pl": "Port lotniczy Nowy Jork-JFK",
                "name_pt": "Aeroporto Internacional John F. Kennedy",
                "name_ru": "Международный аэропорт имени Джона Кеннеди",
                "name_sv": "John F. Kennedy International Airport",
                "name_tr": "John F. Kennedy Uluslararası Havaalanı",
                "name_vi": "Sân bay quốc tế John F. Kennedy",
                "name_zh": "約翰·菲茨傑拉德·甘迺迪國際機場",
                "wdid_score": 4,
                "ne_id": 1159123927
            },
            "geometry": {
                "type": "Point",
                "coordinates": [
                    -73.786326860929549,
                    40.645959558408144
                ]
            }
        },
        {
            "type": "Feature",
            "properties": {
                "scalerank": 5,
                "featurecla": "Airport",
                "type": "major",
                "name": "Incheon International Airport",
                "abbrev": "JFK",
                "location": "parking",
                "gps_code": "KJFK",
                "iata_code": "ICN",
                "wikipedia": "http:\/\/en.wikipedia.org\/wiki\/Incheon_International_Airport",
                "natlscale": 30.0,
                "comments": null,
                "wikidataid": "Q8685",
                "name_ar": "مطار جون إف كينيدي الدولي",
                "name_bn": "জন এফ. কেনেডি আন্তর্জাতিক বিমানবন্দর",
                "name_de": "John F. Kennedy International Airport",
                "name_en": "Incheon International Airport",
                "name_es": "Aeropuerto Internacional John F. Kennedy",
                "name_fr": "aéroport international John-F.-Kennedy de New York",
                "name_el": "Διεθνές Αεροδρόμιο Τζον Κένεντι",
                "name_hi": null,
                "name_hu": "John Fitzgerald Kennedy nemzetközi repülőtér",
                "name_id": "Bandar Udara Internasional John F. Kennedy",
                "name_it": "Aeroporto Internazionale John F. Kennedy",
                "name_ja": "ジョン・F・ケネディ国際空港",
                "name_ko": "존 F. 케네디 국제공항",
                "name_nl": "John F. Kennedy International Airport",
                "name_pl": "Port lotniczy Nowy Jork-JFK",
                "name_pt": "Aeroporto Internacional John F. Kennedy",
                "name_ru": "Международный аэропорт имени Джона Кеннеди",
                "name_sv": "John F. Kennedy International Airport",
                "name_tr": "John F. Kennedy Uluslararası Havaalanı",
                "name_vi": "Sân bay quốc tế John F. Kennedy",
                "name_zh": "約翰·菲茨傑拉德·甘迺迪國際機場",
                "wdid_score": 4,
                "ne_id": 1159123927
            },
            "geometry": {
                "type": "Point",
                "coordinates": [
                    126.4407,
                    37.4602
                ]
            }
        },
        {
            "type": "Feature",
            "properties": {
                "scalerank": 2,
                "featurecla": "Airport",
                "type": "major",
                "name": "San Francisco Int'l",
                "abbrev": "SFO",
                "location": "terminal",
                "gps_code": "KSFO",
                "iata_code": "SFO",
                "wikipedia": "http:\/\/en.wikipedia.org\/wiki\/San_Francisco_International_Airport",
                "natlscale": 150.0,
                "comments": null,
                "wikidataid": "Q8688",
                "name_ar": "مطار سان فرانسيسكو الدولي",
                "name_bn": "সান ফ্রান্সিস্কো আন্তর্জাতিক বিমানবন্দর",
                "name_de": "San Francisco International Airport",
                "name_en": "San Francisco International Airport",
                "name_es": "Aeropuerto Internacional de San Francisco",
                "name_fr": "aéroport international de San Francisco",
                "name_el": null,
                "name_hi": null,
                "name_hu": "San Franciscó-i nemzetközi repülőtér",
                "name_id": "Bandar Udara Internasional San Francisco",
                "name_it": "Aeroporto Internazionale di San Francisco",
                "name_ja": "サンフランシスコ国際空港",
                "name_ko": "샌프란시스코 국제공항",
                "name_nl": "internationale luchthaven van San Francisco",
                "name_pl": "Port lotniczy San Francisco",
                "name_pt": "Aeroporto Internacional de São Francisco",
                "name_ru": "Международный аэропорт Сан-Франциско",
                "name_sv": "San Francisco International Airport",
                "name_tr": "San Francisco Uluslararası Havalimanı",
                "name_vi": "Sân bay quốc tế San Francisco",
                "name_zh": "舊金山國際機場",
                "wdid_score": 4,
                "ne_id": 1159127665
            },
            "geometry": {
                "type": "Point",
                "coordinates": [
                    -122.38347034444935,
                    37.617025086805349
                ]
            }
        }
    ]
}